{
  "norad_id": 55411,
  "name": "STARLINK-5605",
  "history": [
    {
      "epoch": "2026-03-28T22:27:58.446432Z",
      "apogee_km": 573.9460529568878,
      "perigee_km": 570.1544478043143,
      "latitude_deg": -4.3375228258971116e-05,
      "longitude_deg": -147.2200339316548,
      "height_km": 574.4636631166387,
      "semi_major_axis_km": 6950.187250380601,
      "eccentricity": 0.00027277,
      "inclination_deg": 70.0011,
      "raan_deg": 16.1229,
      "arg_perigee_deg": 270.4186,
      "mean_anomaly_deg": 89.666,
      "mean_motion_rev_day": 14.98331824
    },
    {
      "epoch": "2026-03-29T04:52:30.437184Z",
      "apogee_km": 573.9136080604894,
      "perigee_km": 570.1646830475765,
      "latitude_deg": 1.0551066988310956e-06,
      "longitude_deg": 115.71028382005906,
      "height_km": 574.4452261482832,
      "semi_major_axis_km": 6950.176145554033,
      "eccentricity": 0.0002697,
      "inclination_deg": 70.0012,
      "raan_deg": 15.4497,
      "arg_perigee_deg": 270.6467,
      "mean_anomaly_deg": 89.4383,
      "mean_motion_rev_day": 14.98335415
    },
    {
      "epoch": "2026-03-30T04:54:31.433472Z",
      "apogee_km": 573.911576124091,
      "perigee_km": 570.1765488211186,
      "latitude_deg": -1.2816732330512217e-05,
      "longitude_deg": 111.69410294670855,
      "height_km": 574.4487824412005,
      "semi_major_axis_km": 6950.181062472605,
      "eccentricity": 0.0002687,
      "inclination_deg": 70.0011,
      "raan_deg": 12.9247,
      "arg_perigee_deg": 270.6903,
      "mean_anomaly_deg": 89.3948,
      "mean_motion_rev_day": 14.98333825
    }
  ]
}